CCSDS_OMM_VERS = 2.0
CREATION_DATE  = 
ORIGINATOR     = 

OBJECT_NAME    = STARLINK-36728
OBJECT_ID      = 2026-036Z
CENTER_NAME    = EARTH
REF_FRAME      = TEME
TIME_SYSTEM    = UTC
MEAN_ELEMENT_THEORY = SGP/SGP4

EPOCH          = 2026-03-23T12:00:02.998944
MEAN_MOTION    = 15.41714401
ECCENTRICITY   = .0001485
INCLINATION    = 42.9985
RA_OF_ASC_NODE = 167.3772
ARG_OF_PERICENTER = 276.5219
MEAN_ANOMALY   = 56.7601

EPHEMERIS_TYPE = 0
CLASSIFICATION_TYPE = U
NORAD_CAT_ID   = 67927
ELEMENT_SET_NO = 999
REV_AT_EPOCH   = 586
BSTAR          = -.50329E-1
MEAN_MOTION_DOT = -.1943866E-1
MEAN_MOTION_DDOT = 0

CCSDS_OMM_VERS = 2.0
CREATION_DATE  = 
ORIGINATOR     = 

OBJECT_NAME    = STARLINK-36771
OBJECT_ID      = 2026-036AA
CENTER_NAME    = EARTH
REF_FRAME      = TEME
TIME_SYSTEM    = UTC
MEAN_ELEMENT_THEORY = SGP/SGP4

EPOCH          = 2026-03-23T12:00:02.998944
MEAN_MOTION    = 15.43446699
ECCENTRICITY   = .000101
INCLINATION    = 42.9989
RA_OF_ASC_NODE = 167.4764
ARG_OF_PERICENTER = 277.6729
MEAN_ANOMALY   = 15.8009

EPHEMERIS_TYPE = 0
CLASSIFICATION_TYPE = U
NORAD_CAT_ID   = 67928
ELEMENT_SET_NO = 999
REV_AT_EPOCH   = 586
BSTAR          = -.4601E-1
MEAN_MOTION_DOT = -.189048E-1
MEAN_MOTION_DDOT = 0

CCSDS_OMM_VERS = 2.0
CREATION_DATE  = 
ORIGINATOR     = 

OBJECT_NAME    = STARLINK-36809
OBJECT_ID      = 2026-036AB
CENTER_NAME    = EARTH
REF_FRAME      = TEME
TIME_SYSTEM    = UTC
MEAN_ELEMENT_THEORY = SGP/SGP4

EPOCH          = 2026-03-23T12:00:02.998944
MEAN_MOTION    = 15.43591500
ECCENTRICITY   = .0001105
INCLINATION    = 42.9990
RA_OF_ASC_NODE = 167.4515
ARG_OF_PERICENTER = 271.2028
MEAN_ANOMALY   = 32.2999

EPHEMERIS_TYPE = 0
CLASSIFICATION_TYPE = U
NORAD_CAT_ID   = 67929
ELEMENT_SET_NO = 999
REV_AT_EPOCH   = 586
BSTAR          = -.46389E-1
MEAN_MOTION_DOT = -.1912953E-1
MEAN_MOTION_DDOT = 0

CCSDS_OMM_VERS = 2.0
CREATION_DATE  = 
ORIGINATOR     = 

OBJECT_NAME    = STARLINK-36865
OBJECT_ID      = 2026-036AC
CENTER_NAME    = EARTH
REF_FRAME      = TEME
TIME_SYSTEM    = UTC
MEAN_ELEMENT_THEORY = SGP/SGP4

EPOCH          = 2026-03-23T12:00:02.998944
MEAN_MOTION    = 15.40251143
ECCENTRICITY   = .0001752
INCLINATION    = 43.0000
RA_OF_ASC_NODE = 167.1816
ARG_OF_PERICENTER = 271.4929
MEAN_ANOMALY   = 140.2673

EPHEMERIS_TYPE = 0
CLASSIFICATION_TYPE = U
NORAD_CAT_ID   = 67930
ELEMENT_SET_NO = 999
REV_AT_EPOCH   = 586
BSTAR          = -.52242E-1
MEAN_MOTION_DOT = -.1923572E-1
MEAN_MOTION_DDOT = 0

CCSDS_OMM_VERS = 2.0
CREATION_DATE  = 
ORIGINATOR     = 

OBJECT_NAME    = STARLINK-36781
OBJECT_ID      = 2026-036AD
CENTER_NAME    = EARTH
REF_FRAME      = TEME
TIME_SYSTEM    = UTC
MEAN_ELEMENT_THEORY = SGP/SGP4

EPOCH          = 2026-03-23T12:00:02.998944
MEAN_MOTION    = 15.39632668
ECCENTRICITY   = .0001371
INCLINATION    = 42.9988
RA_OF_ASC_NODE = 167.2461
ARG_OF_PERICENTER = 275.5371
MEAN_ANOMALY   = 110.1221

EPHEMERIS_TYPE = 0
CLASSIFICATION_TYPE = U
NORAD_CAT_ID   = 67931
ELEMENT_SET_NO = 999
REV_AT_EPOCH   = 586
BSTAR          = -.53942E-1
MEAN_MOTION_DOT = -.1943124E-1
MEAN_MOTION_DDOT = 0

CCSDS_OMM_VERS = 2.0
CREATION_DATE  = 
ORIGINATOR     = 

OBJECT_NAME    = STARLINK-36301
OBJECT_ID      = 2026-037A
CENTER_NAME    = EARTH
REF_FRAME      = TEME
TIME_SYSTEM    = UTC
MEAN_ELEMENT_THEORY = SGP/SGP4

EPOCH          = 2026-03-23T12:00:02.998944
MEAN_MOTION    = 15.58598957
ECCENTRICITY   = .0001307
INCLINATION    = 42.9996
RA_OF_ASC_NODE = 114.5306
ARG_OF_PERICENTER = 277.2081
MEAN_ANOMALY   = 28.5947

EPHEMERIS_TYPE = 0
CLASSIFICATION_TYPE = U
NORAD_CAT_ID   = 67932
ELEMENT_SET_NO = 999
REV_AT_EPOCH   = 533
BSTAR          = -.26709E-1
MEAN_MOTION_DOT = -.1863056E-1
MEAN_MOTION_DDOT = 0

CCSDS_OMM_VERS = 2.0
CREATION_DATE  = 
ORIGINATOR     = 

OBJECT_NAME    = STARLINK-36852
OBJECT_ID      = 2026-037B
CENTER_NAME    = EARTH
REF_FRAME      = TEME
TIME_SYSTEM    = UTC
MEAN_ELEMENT_THEORY = SGP/SGP4

EPOCH          = 2026-03-23T12:00:02.998944
MEAN_MOTION    = 15.50494835
ECCENTRICITY   = .000145
INCLINATION    = 42.9995
RA_OF_ASC_NODE = 115.5958
ARG_OF_PERICENTER = 269.7393
MEAN_ANOMALY   = 325.3187

EPHEMERIS_TYPE = 0
CLASSIFICATION_TYPE = U
NORAD_CAT_ID   = 67933
ELEMENT_SET_NO = 999
REV_AT_EPOCH   = 541
BSTAR          = .14582E-2
MEAN_MOTION_DOT = .85891E-3
MEAN_MOTION_DDOT = 0

CCSDS_OMM_VERS = 2.0
CREATION_DATE  = 
ORIGINATOR     = 

OBJECT_NAME    = STARLINK-36861
OBJECT_ID      = 2026-037C
CENTER_NAME    = EARTH
REF_FRAME      = TEME
TIME_SYSTEM    = UTC
MEAN_ELEMENT_THEORY = SGP/SGP4

EPOCH          = 2026-03-23T12:00:02.998944
MEAN_MOTION    = 15.54551246
ECCENTRICITY   = .0000821
INCLINATION    = 42.9999
RA_OF_ASC_NODE = 114.7287
ARG_OF_PERICENTER = 289.3534
MEAN_ANOMALY   = 296.3365

EPHEMERIS_TYPE = 0
CLASSIFICATION_TYPE = U
NORAD_CAT_ID   = 67934
ELEMENT_SET_NO = 999
REV_AT_EPOCH   = 541
BSTAR          = -.31148E-1
MEAN_MOTION_DOT = -.1864926E-1
MEAN_MOTION_DDOT = 0

CCSDS_OMM_VERS = 2.0
CREATION_DATE  = 
ORIGINATOR     = 

OBJECT_NAME    = STARLINK-36860
OBJECT_ID      = 2026-037D
CENTER_NAME    = EARTH
REF_FRAME      = TEME
TIME_SYSTEM    = UTC
MEAN_ELEMENT_THEORY = SGP/SGP4

EPOCH          = 2026-03-23T12:00:02.998944
MEAN_MOTION    = 15.50524563
ECCENTRICITY   = .0001129
INCLINATION    = 42.9997
RA_OF_ASC_NODE = 115.2029
ARG_OF_PERICENTER = 302.8859
MEAN_ANOMALY   = 90.9627

EPHEMERIS_TYPE = 0
CLASSIFICATION_TYPE = U
NORAD_CAT_ID   = 67935
ELEMENT_SET_NO = 999
REV_AT_EPOCH   = 541
BSTAR          = .12726E-2
MEAN_MOTION_DOT = .74889E-3
MEAN_MOTION_DDOT = 0

CCSDS_OMM_VERS = 2.0
CREATION_DATE  = 
ORIGINATOR     = 

OBJECT_NAME    = STARLINK-36848
OBJECT_ID      = 2026-037E
CENTER_NAME    = EARTH
REF_FRAME      = TEME
TIME_SYSTEM    = UTC
MEAN_ELEMENT_THEORY = SGP/SGP4

EPOCH          = 2026-03-23T12:00:02.998944
MEAN_MOTION    = 15.50513549
ECCENTRICITY   = .0001275
INCLINATION    = 42.9993
RA_OF_ASC_NODE = 115.3472
ARG_OF_PERICENTER = 276.6616
MEAN_ANOMALY   = 58.6258

EPHEMERIS_TYPE = 0
CLASSIFICATION_TYPE = U
NORAD_CAT_ID   = 67936
ELEMENT_SET_NO = 999
REV_AT_EPOCH   = 541
BSTAR          = .1381E-2
MEAN_MOTION_DOT = .81333E-3
MEAN_MOTION_DDOT = 0

CCSDS_OMM_VERS = 2.0
CREATION_DATE  = 
ORIGINATOR     = 

OBJECT_NAME    = STARLINK-36370
OBJECT_ID      = 2026-037F
CENTER_NAME    = EARTH
REF_FRAME      = TEME
TIME_SYSTEM    = UTC
MEAN_ELEMENT_THEORY = SGP/SGP4

EPOCH          = 2026-03-23T12:00:02.998944
MEAN_MOTION    = 15.50516403
ECCENTRICITY   = .000178
INCLINATION    = 43.0002
RA_OF_ASC_NODE = 115.1339
ARG_OF_PERICENTER = 281.8405
MEAN_ANOMALY   = 140.2352

EPHEMERIS_TYPE = 0
CLASSIFICATION_TYPE = U
NORAD_CAT_ID   = 67937
ELEMENT_SET_NO = 999
REV_AT_EPOCH   = 541
BSTAR          = .1481E-2
MEAN_MOTION_DOT = .87322E-3
MEAN_MOTION_DDOT = 0

CCSDS_OMM_VERS = 2.0
CREATION_DATE  = 
ORIGINATOR     = 

OBJECT_NAME    = STARLINK-36371
OBJECT_ID      = 2026-037G
CENTER_NAME    = EARTH
REF_FRAME      = TEME
TIME_SYSTEM    = UTC
MEAN_ELEMENT_THEORY = SGP/SGP4

EPOCH          = 2026-03-23T12:00:02.998944
MEAN_MOTION    = 15.51753631
ECCENTRICITY   = .0001514
INCLINATION    = 43.0000
RA_OF_ASC_NODE = 114.8520
ARG_OF_PERICENTER = 295.6350
MEAN_ANOMALY   = 239.6524

EPHEMERIS_TYPE = 0
CLASSIFICATION_TYPE = U
NORAD_CAT_ID   = 67938
ELEMENT_SET_NO = 999
REV_AT_EPOCH   = 541
BSTAR          = -.29005E-1
MEAN_MOTION_DOT = -.1597256E-1
MEAN_MOTION_DDOT = 0

