STARLINK-36728          
1 67927U 26036Z   26082.50003471 -.01943866  00000+0 -50329-1 0  9994
2 67927  42.9985 167.3772 0001485 276.5219  56.7601 15.41714401  5865
STARLINK-36771          
1 67928U 26036AA  26082.50003471 -.01890480  00000+0 -46010-1 0  9990
2 67928  42.9989 167.4764 0001010 277.6729  15.8009 15.43446699  5865
STARLINK-36809          
1 67929U 26036AB  26082.50003471 -.01912953  00000+0 -46389-1 0  9990
2 67929  42.9990 167.4515 0001105 271.2028  32.2999 15.43591500  5862
STARLINK-36865          
1 67930U 26036AC  26082.50003471 -.01923572  00000+0 -52242-1 0  9996
2 67930  43.0000 167.1816 0001752 271.4929 140.2673 15.40251143  5861
STARLINK-36781          
1 67931U 26036AD  26082.50003471 -.01943124  00000+0 -53942-1 0  9990
2 67931  42.9988 167.2461 0001371 275.5371 110.1221 15.39632668  5863
STARLINK-36301          
1 67932U 26037A   26082.50003471 -.01863056  00000+0 -26709-1 0  9998
2 67932  42.9996 114.5306 0001307 277.2081  28.5947 15.58598957  5334
STARLINK-36852          
1 67933U 26037B   26082.50003471  .00085891  00000+0  14582-2 0  9996
2 67933  42.9995 115.5958 0001450 269.7393 325.3187 15.50494835  5414
STARLINK-36861          
1 67934U 26037C   26082.50003471 -.01864926  00000+0 -31148-1 0  9990
2 67934  42.9999 114.7287 0000821 289.3534 296.3365 15.54551246  5410
STARLINK-36860          
1 67935U 26037D   26082.50003471  .00074889  00000+0  12726-2 0  9991
2 67935  42.9997 115.2029 0001129 302.8859  90.9627 15.50524563  5419
STARLINK-36848          
1 67936U 26037E   26082.50003471  .00081333  00000+0  13810-2 0  9999
2 67936  42.9993 115.3472 0001275 276.6616  58.6258 15.50513549  5413
STARLINK-36370          
1 67937U 26037F   26082.50003471  .00087322  00000+0  14810-2 0  9995
2 67937  43.0002 115.1339 0001780 281.8405 140.2352 15.50516403  5417
STARLINK-36371          
1 67938U 26037G   26082.50003471 -.01597256  00000+0 -29005-1 0  9992
2 67938  43.0000 114.8520 0001514 295.6350 239.6524 15.51753631  5412
